KUIPER-00629            
1 69783U 26151W   26194.00002315  .00023704  00000+0  65430-3 0  9997
2 69783  51.8743 191.0326 0007491 139.9192 335.2330 15.36934697  2004
KUIPER-00631            
1 69784U 26151X   26194.00002315  .00023771  00000+0  66083-3 0  9997
2 69784  51.8711 191.0504 0007983 147.4685 318.8290 15.36708422  1304
KUIPER-00634            
1 69785U 26151Y   26194.29871390  .00011597  00000+0  31819-3 0  9998
2 69785  51.8780 189.5254 0003643 130.9891 229.1412 15.37713955  1724
KUIPER-00639            
1 69786U 26151Z   26194.00002315  .00032116  00000+0  91123-3 0  9995
2 69786  51.8687 191.0890 0009861 154.1658 292.7466 15.35889688  1306
KUIPER-00641            
1 69787U 26151AA  26194.00002315  .00023455  00000+0  68582-3 0  9995
2 69787  51.8677 191.1293 0010759 156.3000 270.4252 15.35110191  2311
KUIPER-00644            
1 69788U 26151AB  26194.00002315  .00024586  00000+0  68692-3 0  9994
2 69788  51.8737 191.0651 0008658 150.2064 308.9955 15.36527451  2616
KUIPER-00646            
1 69789U 26151AC  26194.00002315  .00030499  00000+0  86467-3 0  9995
2 69789  51.8701 191.0859 0009757 156.2352 292.4103 15.35941879  1507
KUIPER-00647            
1 69790U 26151AD  26194.00002315  .00024834  00000+0  71370-3 0  9990
2 69790  51.8664 191.1174 0010767 156.4497 275.8707 15.35619369  2459
KUIPER-00662            
1 69791U 26151AE  26194.24162799 -.00005387  00000+0 -13765-3 0  9998
2 69791  51.8724 189.8913 0008531 147.2284 212.9233 15.36583181  1717
